[{"OBJECT_NAME":"STARLINK-2036","OBJECT_ID":"2021-012AJ","EPOCH":"2026-03-10T00:00:02.999808","MEAN_MOTION":15.43145644,"ECCENTRICITY":0.00019859,"INCLINATION":53.161,"RA_OF_ASC_NODE":63.0833,"ARG_OF_PERICENTER":97.7885,"MEAN_ANOMALY":132.9108,"EPHEMERIS_TYPE":0,"CLASSIFICATION_TYPE":"U","NORAD_CAT_ID":47652,"ELEMENT_SET_NO":999,"REV_AT_EPOCH":585,"BSTAR":0.0033754047,"MEAN_MOTION_DOT":0.00154499,"MEAN_MOTION_DDOT":0},{"OBJECT_NAME":"OBJECT C","OBJECT_ID":"2024-173C","EPOCH":"2026-03-09T23:00:13.423680","MEAN_MOTION":15.43533019,"ECCENTRICITY":0.0013225,"INCLINATION":97.3461,"RA_OF_ASC_NODE":150.2678,"ARG_OF_PERICENTER":142.6968,"MEAN_ANOMALY":217.5201,"EPHEMERIS_TYPE":0,"CLASSIFICATION_TYPE":"U","NORAD_CAT_ID":61229,"ELEMENT_SET_NO":999,"REV_AT_EPOCH":8139,"BSTAR":0.00079015478,"MEAN_MOTION_DOT":0.00035589,"MEAN_MOTION_DDOT":0}]
